start=new Date('2022-07-08T00:00:00.000Z').valueOf();
sats=[{"TLE_LINE2":"2 47799  53.0541 133.5104 0001808  71.8230 288.2956 15.06402377 74681","FILE":"3509293","MEAN_MOTION_DDOT":"0.0000000000000","TIME_SYSTEM":"UTC","COUNTRY_CODE":"US","NORAD_CAT_ID":"47799","ARG_OF_PERICENTER":"71.8230","PERIOD":"95.592","OBJECT_NAME":"STARLINK-2380","OBJECT_TYPE":"PAYLOAD","MEAN_MOTION":"15.06402377","INCLINATION":"53.0541","EPOCH":"2022-07-07T06:20:09.865248","CENTER_NAME":"EARTH","MEAN_ANOMALY":"288.2956","SEMIMAJOR_AXIS":"6925.341","RCS_SIZE":"LARGE","DECAY_DATE":null,"EPHEMERIS_TYPE":"0","SITE":"AFETR","OBJECT_ID":"2021-018N","MEAN_MOTION_DOT":"0.00000077","GP_ID":"207599189","APOAPSIS":"548.458","MEAN_ELEMENT_THEORY":"SGP4","REF_FRAME":"TEME","RA_OF_ASC_NODE":"133.5104","PERIAPSIS":"545.954","CLASSIFICATION_TYPE":"U","REV_AT_EPOCH":"7468","ELEMENT_SET_NO":"999","LAUNCH_DATE":"2021-03-11","BSTAR":"0.00002404600000","TLE_LINE1":"1 47799U 21018N   22188.26400307  .00000077  00000-0  24046-4 0  9995","ECCENTRICITY":"0.00018080"},{"GP_ID":"207629395","MEAN_MOTION_DOT":"0.00004516","APOAPSIS":"548.761","OBJECT_ID":"2021-018P","SITE":"AFETR","EPHEMERIS_TYPE":"0","REF_FRAME":"TEME","MEAN_ELEMENT_THEORY":"SGP4","CLASSIFICATION_TYPE":"U","PERIAPSIS":"545.773","RA_OF_ASC_NODE":"130.7395","ECCENTRICITY":"0.00021570","TLE_LINE1":"1 47800U 21018P   22188.88325042  .00004516  00000-0  32204-3 0  9994","BSTAR":"0.00032204000000","LAUNCH_DATE":"2021-03-11","REV_AT_EPOCH":"7478","ELEMENT_SET_NO":"999","TIME_SYSTEM":"UTC","FILE":"3509470","MEAN_MOTION_DDOT":"0.0000000000000","TLE_LINE2":"2 47800  53.0544 130.7395 0002157  68.2748 291.8471 15.06382599 74786","OBJECT_NAME":"STARLINK-2381","ARG_OF_PERICENTER":"68.2748","PERIOD":"95.593","NORAD_CAT_ID":"47800","COUNTRY_CODE":"US","MEAN_MOTION":"15.06382599","INCLINATION":"53.0544","OBJECT_TYPE":"PAYLOAD","DECAY_DATE":null,"RCS_SIZE":"LARGE","MEAN_ANOMALY":"291.8471","CENTER_NAME":"EARTH","EPOCH":"2022-07-07T21:11:52.836288","SEMIMAJOR_AXIS":"6925.402"},{"RA_OF_ASC_NODE":"135.9498","PERIAPSIS":"545.709","CLASSIFICATION_TYPE":"U","ELEMENT_SET_NO":"999","REV_AT_EPOCH":"7436","LAUNCH_DATE":"2021-03-11","BSTAR":"0.00004597200000","ECCENTRICITY":"0.00021490","TLE_LINE1":"1 47801U 21018Q   22188.85146775  .00000403  00000-0  45972-4 0  9994","EPHEMERIS_TYPE":"0","SITE":"AFETR","OBJECT_ID":"2021-018Q","APOAPSIS":"548.685","GP_ID":"207606435","MEAN_MOTION_DOT":"0.00000403","MEAN_ELEMENT_THEORY":"SGP4","REF_FRAME":"TEME","OBJECT_TYPE":"PAYLOAD","INCLINATION":"53.0555","MEAN_MOTION":"15.06405376","SEMIMAJOR_AXIS":"6925.332","CENTER_NAME":"EARTH","EPOCH":"2022-07-07T20:26:06.813600","MEAN_ANOMALY":"292.6711","RCS_SIZE":"LARGE","DECAY_DATE":null,"TLE_LINE2":"2 47801  53.0555 135.9498 0002149  67.4506 292.6711 15.06405376 74363","MEAN_MOTION_DDOT":"0.0000000000000","FILE":"3509407","TIME_SYSTEM":"UTC","COUNTRY_CODE":"US","NORAD_CAT_ID":"47801","PERIOD":"95.592","ARG_OF_PERICENTER":"67.4506","OBJECT_NAME":"STARLINK-2382"},{"MEAN_ELEMENT_THEORY":"SGP4","REF_FRAME":"TEME","SITE":"AFETR","EPHEMERIS_TYPE":"0","APOAPSIS":"548.366","GP_ID":"207629869","MEAN_MOTION_DOT":"0.00000707","OBJECT_ID":"2021-018R","LAUNCH_DATE":"2021-03-11","REV_AT_EPOCH":"7444","ELEMENT_SET_NO":"999","TLE_LINE1":"1 47802U 21018R   22188.89752512  .00000707  00000-0  66337-4 0  9996","ECCENTRICITY":"0.00016920","BSTAR":"0.00006633700000","RA_OF_ASC_NODE":"155.6606","CLASSIFICATION_TYPE":"U","PERIAPSIS":"546.023","NORAD_CAT_ID":"47802","COUNTRY_CODE":"US","OBJECT_NAME":"STARLINK-2383","PERIOD":"95.592","ARG_OF_PERICENTER":"66.2155","TLE_LINE2":"2 47802  53.0545 155.6606 0001692  66.2155 293.9011 15.06406287 74440","TIME_SYSTEM":"UTC","MEAN_MOTION_DDOT":"0.0000000000000","FILE":"3509470","RCS_SIZE":"LARGE","SEMIMAJOR_AXIS":"6925.329","CENTER_NAME":"EARTH","MEAN_ANOMALY":"293.9011","EPOCH":"2022-07-07T21:32:26.170368","DECAY_DATE":null,"OBJECT_TYPE":"PAYLOAD","INCLINATION":"53.0545","MEAN_MOTION":"15.06406287"},{"TIME_SYSTEM":"UTC","FILE":"3509470","MEAN_MOTION_DDOT":"0.0000000000000","TLE_LINE2":"2 47803  53.0550 130.9918 0002282  70.0531 290.0704 15.06401725 74771","OBJECT_NAME":"STARLINK-2384","ARG_OF_PERICENTER":"70.0531","PERIOD":"95.592","NORAD_CAT_ID":"47803","COUNTRY_CODE":"US","MEAN_MOTION":"15.06401725","INCLINATION":"53.0550","OBJECT_TYPE":"PAYLOAD","DECAY_DATE":null,"RCS_SIZE":"LARGE","MEAN_ANOMALY":"290.0704","EPOCH":"2022-07-07T19:52:15.608352","CENTER_NAME":"EARTH","SEMIMAJOR_AXIS":"6925.343","GP_ID":"207628645","MEAN_MOTION_DOT":"0.00001274","APOAPSIS":"548.789","OBJECT_ID":"2021-018S","SITE":"AFETR","EPHEMERIS_TYPE":"0","REF_FRAME":"TEME","MEAN_ELEMENT_THEORY":"SGP4","CLASSIFICATION_TYPE":"U","PERIAPSIS":"545.628","RA_OF_ASC_NODE":"130.9918","ECCENTRICITY":"0.00022820","TLE_LINE1":"1 47803U 21018S   22188.82795843  .00001274  00000-0  10442-3 0  9999","BSTAR":"0.00010442000000","LAUNCH_DATE":"2021-03-11","REV_AT_EPOCH":"7477","ELEMENT_SET_NO":"999"},{"DECAY_DATE":null,"RCS_SIZE":"LARGE","MEAN_ANOMALY":"292.3256","CENTER_NAME":"EARTH","EPOCH":"2022-07-07T05:53:39.528096","SEMIMAJOR_AXIS":"6925.362","MEAN_MOTION":"15.06395497","INCLINATION":"53.0546","OBJECT_TYPE":"PAYLOAD","OBJECT_NAME":"STARLINK-2385","ARG_OF_PERICENTER":"67.7949","PERIOD":"95.592","NORAD_CAT_ID":"47804","COUNTRY_CODE":"US","TIME_SYSTEM":"UTC","FILE":"3509293","MEAN_MOTION_DDOT":"0.0000000000000","TLE_LINE2":"2 47804  53.0546 133.6048 0002034  67.7949 292.3256 15.06395497 74687","ECCENTRICITY":"0.00020340","TLE_LINE1":"1 47804U 21018T   22188.24559639  .00001956  00000-0  15023-3 0  9994","BSTAR":"0.00015023000000","LAUNCH_DATE":"2021-03-11","REV_AT_EPOCH":"7468","ELEMENT_SET_NO":"999","CLASSIFICATION_TYPE":"U","PERIAPSIS":"545.819","RA_OF_ASC_NODE":"133.6048","REF_FRAME":"TEME","MEAN_ELEMENT_THEORY":"SGP4","MEAN_MOTION_DOT":"0.00001956","GP_ID":"207599939","APOAPSIS":"548.636","OBJECT_ID":"2021-018T","SITE":"AFETR","EPHEMERIS_TYPE":"0"},{"CLASSIFICATION_TYPE":"U","PERIAPSIS":"545.806","RA_OF_ASC_NODE":"131.3111","TLE_LINE1":"1 47805U 21018U   22188.80956761  .00000689  00000-0  65177-4 0  9992","ECCENTRICITY":"0.00020580","BSTAR":"0.00006517700000","LAUNCH_DATE":"2021-03-11","REV_AT_EPOCH":"7477","ELEMENT_SET_NO":"999","MEAN_MOTION_DOT":"0.00000689","GP_ID":"207629642","APOAPSIS":"548.656","OBJECT_ID":"2021-018U","SITE":"AFETR","EPHEMERIS_TYPE":"0","REF_FRAME":"TEME","MEAN_ELEMENT_THEORY":"SGP4","MEAN_MOTION":"15.06394330","INCLINATION":"53.0559","OBJECT_TYPE":"PAYLOAD","DECAY_DATE":null,"RCS_SIZE":"LARGE","EPOCH":"2022-07-07T19:25:46.641504","MEAN_ANOMALY":"289.9746","CENTER_NAME":"EARTH","SEMIMAJOR_AXIS":"6925.366","TIME_SYSTEM":"UTC","FILE":"3509470","MEAN_MOTION_DDOT":"0.0000000000000","TLE_LINE2":"2 47805  53.0559 131.3111 0002058  70.1464 289.9746 15.06394330 74775","OBJECT_NAME":"STARLINK-2386","PERIOD":"95.593","ARG_OF_PERICENTER":"70.1464","NORAD_CAT_ID":"47805","COUNTRY_CODE":"US"},{"EPHEMERIS_TYPE":"0","SITE":"AFETR","OBJECT_ID":"2021-018V","GP_ID":"207630370","MEAN_MOTION_DOT":"-0.00001392","APOAPSIS":"548.883","MEAN_ELEMENT_THEORY":"SGP4","REF_FRAME":"TEME","RA_OF_ASC_NODE":"146.9500","PERIAPSIS":"545.526","CLASSIFICATION_TYPE":"U","ELEMENT_SET_NO":"999","REV_AT_EPOCH":"7459","LAUNCH_DATE":"2021-03-11","BSTAR":"-0.00007450800000","TLE_LINE1":"1 47806U 21018V   22188.61464331 -.00001392  00000-0 -74508-4 0  9991","ECCENTRICITY":"0.00024240","TLE_LINE2":"2 47806  53.0544 146.9500 0002424  60.0986 300.0244 15.06403002 74593","FILE":"3509470","MEAN_MOTION_DDOT":"0.0000000000000","TIME_SYSTEM":"UTC","COUNTRY_CODE":"US","NORAD_CAT_ID":"47806","PERIOD":"95.592","ARG_OF_PERICENTER":"60.0986","OBJECT_NAME":"STARLINK-2387","OBJECT_TYPE":"PAYLOAD","MEAN_MOTION":"15.06403002","INCLINATION":"53.0544","EPOCH":"2022-07-07T14:45:05.181984","CENTER_NAME":"EARTH","MEAN_ANOMALY":"300.0244","SEMIMAJOR_AXIS":"6925.339","RCS_SIZE":"LARGE","DECAY_DATE":null},{"SITE":"AFETR","EPHEMERIS_TYPE":"0","APOAPSIS":"548.672","MEAN_MOTION_DOT":"0.00000847","GP_ID":"207629146","OBJECT_ID":"2021-018W","MEAN_ELEMENT_THEORY":"SGP4","REF_FRAME":"TEME","RA_OF_ASC_NODE":"121.1015","CLASSIFICATION_TYPE":"U","PERIAPSIS":"545.737","LAUNCH_DATE":"2021-03-11","ELEMENT_SET_NO":"999","REV_AT_EPOCH":"7490","TLE_LINE1":"1 47807U 21018W   22188.80307906  .00000847  00000-0  75780-4 0  9992","ECCENTRICITY":"0.00021190","BSTAR":"0.00007578000000","TLE_LINE2":"2 47807  53.0548 121.1015 0002119  67.1974 292.9238 15.06402819 74902","TIME_SYSTEM":"UTC","MEAN_MOTION_DDOT":"0.0000000000000","FILE":"3509470","NORAD_CAT_ID":"47807","COUNTRY_CODE":"US","OBJECT_NAME":"STARLINK-2388","PERIOD":"95.592","ARG_OF_PERICENTER":"67.1974","OBJECT_TYPE":"PAYLOAD","INCLINATION":"53.0548","MEAN_MOTION":"15.06402819","RCS_SIZE":"LARGE","SEMIMAJOR_AXIS":"6925.340","MEAN_ANOMALY":"292.9238","CENTER_NAME":"EARTH","EPOCH":"2022-07-07T19:16:26.030784","DECAY_DATE":null},{"OBJECT_ID":"2021-018X","MEAN_MOTION_DOT":"0.00000808","GP_ID":"207629396","APOAPSIS":"548.514","EPHEMERIS_TYPE":"0","SITE":"AFETR","REF_FRAME":"TEME","MEAN_ELEMENT_THEORY":"SGP4","PERIAPSIS":"545.975","CLASSIFICATION_TYPE":"U","RA_OF_ASC_NODE":"145.6739","BSTAR":"0.00007318700000","ECCENTRICITY":"0.00018330","TLE_LINE1":"1 47808U 21018X   22188.89845315  .00000808  00000-0  73187-4 0  9999","REV_AT_EPOCH":"7463","ELEMENT_SET_NO":"999","LAUNCH_DATE":"2021-03-11","FILE":"3509470","MEAN_MOTION_DDOT":"0.0000000000000","TIME_SYSTEM":"UTC","TLE_LINE2":"2 47808  53.0544 145.6739 0001833  64.1628 295.9550 15.06389951 74639","ARG_OF_PERICENTER":"64.1628","PERIOD":"95.593","OBJECT_NAME":"STARLINK-2389","COUNTRY_CODE":"US","NORAD_CAT_ID":"47808","MEAN_MOTION":"15.06389951","INCLINATION":"53.0544","OBJECT_TYPE":"PAYLOAD","DECAY_DATE":null,"EPOCH":"2022-07-07T21:33:46.352160","CENTER_NAME":"EARTH","MEAN_ANOMALY":"295.9550","SEMIMAJOR_AXIS":"6925.379","RCS_SIZE":"LARGE"}];
